{
  "norad_id": 55771,
  "name": "STARLINK-5591",
  "history": [
    {
      "epoch": "2026-03-28T15:36:02.459808Z",
      "apogee_km": 574.2740785045671,
      "perigee_km": 569.8176212612225,
      "latitude_deg": 3.050313473196159e-05,
      "longitude_deg": 116.55522871615103,
      "height_km": 574.4401250286927,
      "semi_major_axis_km": 6950.1828498828945,
      "eccentricity": 0.0003206,
      "inclination_deg": 70.0009,
      "raan_deg": 176.6329,
      "arg_perigee_deg": 270.8599,
      "mean_anomaly_deg": 89.2193,
      "mean_motion_rev_day": 14.98333247
    }
  ]
}